NORAD_CAT_ID,OBJECT_NAME,OBJECT_TYPE,EPOCH,MEAN_MOTION,ECCENTRICITY,INCLINATION,RA_OF_ASC_NODE,ARG_OF_PERICENTER,MEAN_ANOMALY,BSTAR,MEAN_MOTION_DOT,MEAN_MOTION_DDOT,TLE_LINE0,TLE_LINE1,TLE_LINE2,SEMIMAJOR_AXIS,PERIOD,APOGEE,PERIGEE,DECAYED
56788.0,STARLINK-6336,PAYLOAD,2023-07-13 15:08:40,15.69922274,0.000319,69.9948,291.4045,273.1247,86.9584,4.5817e-06,3.38e-06,0.0,0 STARLINK-6336,1 56788U 23078X   23194.63102172  .00000338  00000-0  45817-5 0  9999,2 56788  69.9948 291.4045 0003190 273.1247  86.9584 15.69922274  7111,6737.256,91.724,361.271,356.972,0.0
56788.0,STARLINK-6336,PAYLOAD,2023-07-14 09:29:40,15.69928552,0.0003269,69.9946,289.2533,264.2342,95.8481,2.6819e-05,3.014e-05,0.0,0 STARLINK-6336,1 56788U 23078X   23195.39561305  .00003014  00000-0  26819-4 0  9994,2 56788  69.9946 289.2533 0003269 264.2342  95.8481 15.69928552  7233,6737.238,91.724,361.306,356.901,0.0
56788.0,STARLINK-6336,PAYLOAD,2023-07-14 23:15:27,15.69917757,0.0004501,69.9984,287.6436,265.0032,95.065,-4.9722e-08,-2.19e-06,0.0,0 STARLINK-6336,1 56788U 23078X   23195.96906852 -.00000219  00000-0 -49722-7 0  9994,2 56788  69.9984 287.6436 0004501 265.0032  95.0650 15.69917757  7329,6737.269,91.725,362.167,356.102,0.0
56788.0,STARLINK-6336,PAYLOAD,2023-07-15 08:25:59,15.6991077,0.0003325,69.9969,286.5688,266.1124,93.9692,8.9589e-06,8.64e-06,0.0,0 STARLINK-6336,1 56788U 23078X   23196.35138131  .00000864  00000-0  89589-5 0  9992,2 56788  69.9969 286.5688 0003325 266.1124  93.9692 15.69910770  7383,6737.289,91.725,361.394,356.914,0.0
56788.0,STARLINK-6336,PAYLOAD,2023-07-15 16:04:44,15.69921141,0.0002953,69.9978,285.6708,258.8034,101.283,1.2416e-05,1.28e-05,0.0,0 STARLINK-6336,1 56788U 23078X   23196.66995670  .00001280  00000-0  12416-4 0  9992,2 56788  69.9978 285.6708 0002953 258.8034 101.2830 15.69921141  7437,6737.26,91.724,361.114,357.135,0.0
56788.0,STARLINK-6336,PAYLOAD,2023-07-16 22:39:46,15.69919699,0.0003417,69.9952,282.0888,276.5275,83.5532,-1.5573e-06,-4e-06,0.0,0 STARLINK-6336,1 56788U 23078X   23197.94429355 -.00000400  00000-0 -15573-5 0  9999,2 56788  69.9952 282.0888 0003417 276.5275  83.5532 15.69919699  7637,6737.264,91.724,361.431,356.827,0.0
56788.0,STARLINK-6336,PAYLOAD,2023-07-17 17:00:47,15.69929059,0.0003615,69.9964,279.9398,268.1695,91.9087,1.4867e-05,1.575e-05,0.0,0 STARLINK-6336,1 56788U 23078X   23198.70888678  .00001575  00000-0  14867-4 0  9997,2 56788  69.9964 279.9398 0003615 268.1695  91.9087 15.69929059  7756,6737.237,91.724,361.537,356.666,0.0
56788.0,STARLINK-6336,PAYLOAD,2023-07-18 08:18:19,15.69925149,0.0003433,69.9988,278.1483,273.4376,86.6427,5.0133e-06,3.9e-06,0.0,0 STARLINK-6336,1 56788U 23078X   23199.34605733  .00000390  00000-0  50133-5 0  9998,2 56788  69.9988 278.1483 0003433 273.4376  86.6427 15.69925149  7857,6737.248,91.724,361.426,356.8,0.0
56788.0,STARLINK-6336,PAYLOAD,2023-07-19 08:46:21,15.69923865,0.0002877,69.9994,275.2798,276.8138,83.273,9.1135e-06,8.83e-06,0.0,0 STARLINK-6336,1 56788U 23078X   23200.36552769  .00000883  00000-0  91135-5 0  9997,2 56788  69.9994 275.2798 0002877 276.8138  83.2730 15.69923865  8017,6737.252,91.724,361.055,357.179,0.0
56788.0,STARLINK-6336,PAYLOAD,2023-07-20 16:53:08,15.69925804,0.0003761,69.9975,271.5195,268.2263,91.8502,1.1025e-05,1.113e-05,0.0,0 STARLINK-6336,1 56788U 23078X   23201.70357528  .00001113  00000-0  11025-4 0  9998,2 56788  69.9975 271.5195 0003761 268.2263  91.8502 15.69925804  8223,6737.246,91.724,361.645,356.577,0.0
56788.0,STARLINK-6336,PAYLOAD,2023-07-23 16:45:30,15.69918931,0.0003007,69.9982,263.0963,278.8779,81.2076,9.3478e-06,9.11e-06,0.0,0 STARLINK-6336,1 56788U 23078X   23204.69826854  .00000911  00000-0  93478-5 0  9990,2 56788  69.9982 263.0963 0003007 278.8779  81.2076 15.69918931  8437,6737.266,91.724,361.157,357.105,0.0
56788.0,STARLINK-6336,PAYLOAD,2023-07-25 11:34:33,15.69927778,0.0003479,69.9983,258.081,277.1802,82.8998,2.498e-05,2.792e-05,0.0,0 STARLINK-6336,1 56788U 23078X   23206.48233322  .00002792  00000-0  24980-4 0  9991,2 56788  69.9983 258.0810 0003479 277.1802  82.8998 15.69927778  8715,6737.241,91.724,361.45,356.762,0.0
56788.0,STARLINK-6336,PAYLOAD,2023-07-26 05:55:34,15.69927947,0.0003736,69.9969,255.933,274.2319,85.845,2.4124e-05,2.689e-05,0.0,0 STARLINK-6336,1 56788U 23078X   23207.24693081  .00002689  00000-0  24124-4 0  9993,2 56788  69.9969 255.9330 0003736 274.2319  85.8450 15.69927947  8836,6737.24,91.724,361.622,356.588,0.0
56788.0,STARLINK-6336,PAYLOAD,2023-07-26 15:06:05,15.69932088,0.0003526,69.9975,254.8565,271.535,88.5442,2.8066e-05,3.164e-05,0.0,0 STARLINK-6336,1 56788U 23078X   23207.62922838  .00003164  00000-0  28066-4 0  9998,2 56788  69.9975 254.8565 0003526 271.5350  88.5442 15.69932088  9152,6737.228,91.724,361.469,356.718,0.0
56788.0,STARLINK-6336,PAYLOAD,2023-07-27 15:34:08,15.69915825,0.0003309,69.9979,251.9913,276.6356,83.4463,-4.3209e-06,-7.32e-06,0.0,0 STARLINK-6336,1 56788U 23078X   23208.64870698 -.00000732  00000-0 -43209-5 0  9994,2 56788  69.9979 251.9913 0003309 276.6356  83.4463 15.69915825  9317,6737.275,91.725,361.369,356.91,0.0
56788.0,STARLINK-6336,PAYLOAD,2023-07-27 20:09:22,15.69934547,0.0003564,69.9975,251.4535,268.4897,91.5891,3.3124e-05,3.774e-05,0.0,0 STARLINK-6336,1 56788U 23078X   23208.83984743  .00003774  00000-0  33124-4 0  9993,2 56788  69.9975 251.4535 0003564 268.4897  91.5891 15.69934547  9081,6737.221,91.724,361.487,356.685,0.0
56788.0,STARLINK-6336,PAYLOAD,2023-07-28 05:19:54,15.69919723,0.0003226,69.9972,250.3772,268.1935,91.8892,-6.5789e-06,-1.004e-05,0.0,0 STARLINK-6336,1 56788U 23078X   23209.22215501 -.00001004  00000-0 -65789-5 0  9995,2 56788  69.9972 250.3772 0003226 268.1935  91.8892 15.69919723  9403,6737.264,91.724,361.302,356.955,0.0
56788.0,STARLINK-6336,PAYLOAD,2023-07-28 12:58:39,15.69925165,0.000312,69.9949,249.4809,269.6739,90.4099,1.2769e-06,-5.9e-07,0.0,0 STARLINK-6336,1 56788U 23078X   23209.54073533 -.00000059  00000-0  12769-5 0  9995,2 56788  69.9949 249.4809 0003120 269.6739  90.4099 15.69925165  9195,6737.248,91.724,361.215,357.011,0.0
56788.0,STARLINK-6336,PAYLOAD,2023-07-28 14:30:24,15.6992799,0.0003125,69.9959,249.304,265.9735,94.1103,4.7544e-06,3.59e-06,0.0,0 STARLINK-6336,1 56788U 23078X   23209.60445020  .00000359  00000-0  47544-5 0  9997,2 56788  69.9959 249.3040 0003125 265.9735  94.1103 15.69927990  9467,6737.24,91.724,361.21,357.0,0.0
56788.0,STARLINK-6336,PAYLOAD,2023-07-29 14:58:27,15.69926145,0.0002884,69.9954,246.4364,264.0284,96.0583,-2.4148e-06,-5.03e-06,0.0,0 STARLINK-6336,1 56788U 23078X   23210.62392501 -.00000503  00000-0 -24148-5 0  9994,2 56788  69.9954 246.4364 0002884 264.0284  96.0583 15.69926145  9621,6737.245,91.724,361.053,357.167,0.0
56788.0,STARLINK-6336,PAYLOAD,2023-07-31 02:08:44,15.69927635,0.0003396,69.9942,242.3147,267.7392,92.3414,1.2301e-05,1.267e-05,0.0,0 STARLINK-6336,1 56788U 23078X   23212.08940286  .00001267  00000-0  12301-4 0  9998,2 56788  69.9942 242.3147 0003396 267.7392  92.3414 15.69927635  9853,6737.241,91.724,361.394,356.818,0.0
56788.0,STARLINK-6336,PAYLOAD,2023-07-31 14:22:46,15.69919493,0.000331,69.9956,240.884,259.3598,100.7225,-5.1012e-06,-8.26e-06,0.0,0 STARLINK-6336,1 56788U 23078X   23212.59914455 -.00000826  00000-0 -51012-5 0  9998,2 56788  69.9956 240.8840 0003310 259.3598 100.7225 15.69919493  9938,6737.264,91.724,361.359,356.899,0.0
56788.0,STARLINK-6336,PAYLOAD,2023-08-01 02:36:46,15.69926289,0.0002823,69.996,239.4495,265.0167,95.0707,1.1233e-05,1.138e-05,0.0,0 STARLINK-6336,1 56788U 23078X   23213.10887336  .00001138  00000-0  11233-4 0  9998,2 56788  69.9960 239.4495 0002823 265.0167  95.0707 15.69926289 10010,6737.245,91.724,361.012,357.208,0.0
56788.0,STARLINK-6336,PAYLOAD,2023-08-01 11:47:17,15.69920828,0.0002788,69.9958,238.3737,258.4982,101.5901,3.842e-06,2.49e-06,0.0,0 STARLINK-6336,1 56788U 23078X   23213.49117846  .00000249  00000-0  38420-5 0  9992,2 56788  69.9958 238.3737 0002788 258.4982 101.5901 15.69920828 10073,6737.261,91.724,361.004,357.247,0.0
56788.0,STARLINK-6336,PAYLOAD,2023-08-02 13:47:04,15.6991635,0.000269,69.9978,235.3295,254.7104,105.3794,1.6235e-05,1.739e-05,0.0,0 STARLINK-6336,1 56788U 23078X   23214.57436315  .00001739  00000-0  16235-4 0  9991,2 56788  69.9978 235.3295 0002690 254.7104 105.3794 15.69916350 10244,6737.273,91.725,360.951,357.326,0.0
56788.0,STARLINK-6336,PAYLOAD,2023-08-03 02:01:05,15.69929526,0.0003781,69.9964,233.8958,254.2556,105.8223,8.7757e-06,8.43e-06,0.0,0 STARLINK-6336,1 56788U 23078X   23215.08408672  .00000843  00000-0  87757-5 0  9996,2 56788  69.9964 233.8958 0003781 254.2556 105.8223 15.69929526 10326,6737.236,91.724,361.648,356.553,0.0
56788.0,STARLINK-6336,PAYLOAD,2023-08-03 09:39:52,15.69912181,0.0003288,69.9979,233.0026,245.8792,114.206,-7.5896e-06,-1.125e-05,0.0,0 STARLINK-6336,1 56788U 23078X   23215.40268615 -.00001125  00000-0 -75896-5 0  9990,2 56788  69.9979 233.0026 0003288 245.8792 114.2060 15.69912181 10377,6737.285,91.725,361.365,356.935,0.0
56788.0,STARLINK-6336,PAYLOAD,2023-08-04 02:29:06,15.69937653,0.000355,69.9964,231.031,264.8374,95.2416,1.6286e-05,1.747e-05,0.0,0 STARLINK-6336,1 56788U 23078X   23216.10354915  .00001747  00000-0  16286-4 0  9992,2 56788  69.9964 231.0310 0003550 264.8374  95.2416 15.69937653 10480,6737.212,91.723,361.469,356.686,0.0
56788.0,STARLINK-6336,PAYLOAD,2023-08-04 10:07:54,15.69908886,0.000335,69.9971,230.1351,270.1199,89.9613,-1.243e-05,-1.706e-05,0.0,0 STARLINK-6336,1 56788U 23078X   23216.42215629 -.00001706  00000-0 -12430-4 0  9999,2 56788  69.9971 230.1351 0003350 270.1199  89.9613 15.69908886 10537,6737.295,91.725,361.417,356.903,0.0
56788.0,STARLINK-6336,PAYLOAD,2023-08-04 13:11:23,15.69917424,0.0003736,69.9968,229.7777,257.0415,103.0364,-4.0308e-06,-6.98e-06,0.0,0 STARLINK-6336,1 56788U 23078X   23216.54958222 -.00000698  00000-0 -40308-5 0  9990,2 56788  69.9968 229.7777 0003736 257.0415 103.0364 15.69917424 10553,6737.27,91.725,361.652,356.618,0.0
